{
  "type": "FeatureCollection",
  "features": [
    {
      "type": "Feature",
      "properties": {
        "norad_id": 32376,
        "name": "COSMO-SKYMED 2",
        "group": "resource",
        "lat": -82.07764900054048,
        "lon": -91.45601906036221,
        "alt_km": 630.8527947052544,
        "timestamp": "2025-12-17T17:50:18.908590+00:00",
        "meta_object_name": "COSMO-SKYMED 2",
        "meta_object_id": "2007-059A",
        "meta_epoch": "2025-12-17T06:54:21.186144",
        "meta_mean_motion": 14.82148304,
        "meta_eccentricity": 0.00013629,
        "meta_inclination": 97.8804,
        "meta_ra_of_asc_node": 172.5431,
        "meta_arg_of_pericenter": 83.2215,
        "meta_mean_anomaly": 276.9154,
        "meta_ephemeris_type": 0,
        "meta_classification_type": "U",
        "meta_norad_cat_id": 32376,
        "meta_element_set_no": 999,
        "meta_rev_at_epoch": 97505,
        "meta_bstar": 7.2369502e-05,
        "meta_mean_motion_dot": 5.24e-06,
        "meta_mean_motion_ddot": 0,
        "tle_line1": "1 32376U 07059A   25351.28774521  .00000524  00000+0  72370-4 0  9997",
        "tle_line2": "2 32376  97.8804 172.5431 0001362  83.2215 276.9154 14.82148304975050"
      },
      "geometry": {
        "type": "Point",
        "coordinates": [
          -91.45601906036221,
          -82.07764900054048
        ]
      }
    },
    {
      "type": "Feature",
      "properties": {
        "norad_id": 32382,
        "name": "RADARSAT-2",
        "group": "resource",
        "lat": -0.1364346988642086,
        "lon": -3.71833114849044,
        "alt_km": 794.6383148378545,
        "timestamp": "2025-12-17T17:50:18.908600+00:00",
        "meta_object_name": "RADARSAT-2",
        "meta_object_id": "2007-061A",
        "meta_epoch": "2025-12-17T07:45:48.346272",
        "meta_mean_motion": 14.29983316,
        "meta_eccentricity": 0.00011067,
        "meta_inclination": 98.5796,
        "meta_ra_of_asc_node": 355.8474,
        "meta_arg_of_pericenter": 84.1208,
        "meta_mean_anomaly": 276.01,
        "meta_ephemeris_type": 0,
        "meta_classification_type": "U",
        "meta_norad_cat_id": 32382,
        "meta_element_set_no": 999,
        "meta_rev_at_epoch": 93996,
        "meta_bstar": 4.3643362e-05,
        "meta_mean_motion_dot": 6.9e-07,
        "meta_mean_motion_ddot": 0,
        "tle_line1": "1 32382U 07061A   25351.32347623  .00000069  00000+0  43643-4 0  9996",
        "tle_line2": "2 32382  98.5796 355.8474 0001106  84.1208 276.0100 14.29983316939969"
      },
      "geometry": {
        "type": "Point",
        "coordinates": [
          -3.71833114849044,
          -0.1364346988642086
        ]
      }
    },
    {
      "type": "Feature",
      "properties": {
        "norad_id": 32783,
        "name": "CARTOSAT-2A",
        "group": "resource",
        "lat": -8.903233162580587,
        "lon": 42.64015391720602,
        "alt_km": 628.659789450111,
        "timestamp": "2025-12-17T17:50:18.908610+00:00",
        "meta_object_name": "CARTOSAT-2A",
        "meta_object_id": "2008-021A",
        "meta_epoch": "2025-12-17T08:08:11.156064",
        "meta_mean_motion": 14.78945755,
        "meta_eccentricity": 0.00115626,
        "meta_inclination": 97.7931,
        "meta_ra_of_asc_node": 41.0192,
        "meta_arg_of_pericenter": 349.7495,
        "meta_mean_anomaly": 10.3479,
        "meta_ephemeris_type": 0,
        "meta_classification_type": "U",
        "meta_norad_cat_id": 32783,
        "meta_element_set_no": 999,
        "meta_rev_at_epoch": 95192,
        "meta_bstar": 8.0928445e-05,
        "meta_mean_motion_dot": 5.47e-06,
        "meta_mean_motion_ddot": 0,
        "tle_line1": "1 32783U 08021A   25351.33901801  .00000547  00000+0  80928-4 0  9991",
        "tle_line2": "2 32783  97.7931  41.0192 0011562 349.7495  10.3479 14.78945755951929"
      },
      "geometry": {
        "type": "Point",
        "coordinates": [
          42.64015391720602,
          -8.903233162580587
        ]
      }
    },
    {
      "type": "Feature",
      "properties": {
        "norad_id": 33320,
        "name": "HUANJING 1A (HJ-1A)",
        "group": "resource",
        "lat": -62.570402371918114,
        "lon": -5.150002866118413,
        "alt_km": 623.8614198257164,
        "timestamp": "2025-12-17T17:50:18.908621+00:00",
        "meta_object_name": "HUANJING 1A (HJ-1A)",
        "meta_object_id": "2008-041A",
        "meta_epoch": "2025-12-17T06:47:30.897600",
        "meta_mean_motion": 14.83411479,
        "meta_eccentricity": 0.00198924,
        "meta_inclination": 97.6538,
        "meta_ra_of_asc_node": 339.3922,
        "meta_arg_of_pericenter": 20.2102,
        "meta_mean_anomaly": 339.9896,
        "meta_ephemeris_type": 0,
        "meta_classification_type": "U",
        "meta_norad_cat_id": 33320,
        "meta_element_set_no": 999,
        "meta_rev_at_epoch": 93143,
        "meta_bstar": 0.00020761765,
        "meta_mean_motion_dot": 1.658e-05,
        "meta_mean_motion_ddot": 0,
        "tle_line1": "1 33320U 08041A   25351.28299650  .00001658  00000+0  20762-3 0  9990",
        "tle_line2": "2 33320  97.6538 339.3922 0019892  20.2102 339.9896 14.83411479931437"
      },
      "geometry": {
        "type": "Point",
        "coordinates": [
          -5.150002866118413,
          -62.570402371918114
        ]
      }
    },
    {
      "type": "Feature",
      "properties": {
        "norad_id": 33321,
        "name": "HUANJING 1B (HJ-1B)",
        "group": "resource",
        "lat": 31.69884031487887,
        "lon": 168.27218167138392,
        "alt_km": 617.6414698102162,
        "timestamp": "2025-12-17T17:50:18.908632+00:00",
        "meta_object_name": "HUANJING 1B (HJ-1B)",
        "meta_object_id": "2008-041B",
        "meta_epoch": "2025-12-17T04:13:16.976352",
        "meta_mean_motion": 14.828325,
        "meta_eccentricity": 0.00381446,
        "meta_inclination": 97.6398,
        "meta_ra_of_asc_node": 342.9749,
        "meta_arg_of_pericenter": 61.65,
        "meta_mean_anomaly": 298.8553,
        "meta_ephemeris_type": 0,
        "meta_classification_type": "U",
        "meta_norad_cat_id": 33321,
        "meta_element_set_no": 999,
        "meta_rev_at_epoch": 93143,
        "meta_bstar": 8.1189085e-05,
        "meta_mean_motion_dot": 6.14e-06,
        "meta_mean_motion_ddot": 0,
        "tle_line1": "1 33321U 08041B   25351.17589093  .00000614  00000+0  81189-4 0  9994",
        "tle_line2": "2 33321  97.6398 342.9749 0038144  61.6500 298.8553 14.82832500931435"
      },
      "geometry": {
        "type": "Point",
        "coordinates": [
          168.27218167138392,
          31.69884031487887
        ]
      }
    },
    {
      "type": "Feature",
      "properties": {
        "norad_id": 33331,
        "name": "GEOEYE 1",
        "group": "resource",
        "lat": 11.053326534572694,
        "lon": -115.43969035435543,
        "alt_km": 679.6467497194872,
        "timestamp": "2025-12-17T17:50:18.908649+00:00",
        "meta_object_name": "GEOEYE 1",
        "meta_object_id": "2008-042A",
        "meta_epoch": "2025-12-17T07:13:59.780640",
        "meta_mean_motion": 14.64706639,
        "meta_eccentricity": 0.00027687,
        "meta_inclination": 98.1249,
        "meta_ra_of_asc_node": 62.5249,
        "meta_arg_of_pericenter": 265.5866,
        "meta_mean_anomaly": 94.5021,
        "meta_ephemeris_type": 0,
        "meta_classification_type": "U",
        "meta_norad_cat_id": 33331,
        "meta_element_set_no": 999,
        "meta_rev_at_epoch": 92352,
        "meta_bstar": 0.00010776304,
        "meta_mean_motion_dot": 5.26e-06,
        "meta_mean_motion_ddot": 0,
        "tle_line1": "1 33331U 08042A   25351.30138635  .00000526  00000+0  10776-3 0  9998",
        "tle_line2": "2 33331  98.1249  62.5249 0002768 265.5866  94.5021 14.64706639923525"
      },
      "geometry": {
        "type": "Point",
        "coordinates": [
          -115.43969035435543,
          11.053326534572694
        ]
      }
    },
    {
      "type": "Feature",
      "properties": {
        "norad_id": 33396,
        "name": "THEOS",
        "group": "resource",
        "lat": -56.65764058253799,
        "lon": 62.96219438728496,
        "alt_km": 832.7975920055596,
        "timestamp": "2025-12-17T17:50:18.908661+00:00",
        "meta_object_name": "THEOS",
        "meta_object_id": "2008-049A",
        "meta_epoch": "2025-12-17T06:16:22.134720",
        "meta_mean_motion": 14.20097135,
        "meta_eccentricity": 0.00011605,
        "meta_inclination": 98.5869,
        "meta_ra_of_asc_node": 49.2178,
        "meta_arg_of_pericenter": 95.0067,
        "meta_mean_anomaly": 265.1243,
        "meta_ephemeris_type": 0,
        "meta_classification_type": "U",
        "meta_norad_cat_id": 33396,
        "meta_element_set_no": 999,
        "meta_rev_at_epoch": 89214,
        "meta_bstar": -1.9482722e-05,
        "meta_mean_motion_dot": -8.4e-07,
        "meta_mean_motion_ddot": 0,
        "tle_line1": "1 33396U 08049A   25351.26136730 -.00000084  00000+0 -19483-4 0  9991",
        "tle_line2": "2 33396  98.5869  49.2178 0001160  95.0067 265.1243 14.20097135892146"
      },
      "geometry": {
        "type": "Point",
        "coordinates": [
          62.96219438728496,
          -56.65764058253799
        ]
      }
    }
  ]
}